<?xml version="1.0" encoding="utf-8"?>
<kml xmlns="http://www.opengis.net/kml/2.2">
  <Placemark>
    <name>Cincin Mahallesi 189-ada-116-parsel</name>
    <ExtendedData>
      <Data name="İl">
        <value>Aydın</value>
      </Data>
      <Data name="İlçe">
        <value>Koçarlı</value>
      </Data>
      <Data name="Mahalle">
        <value>Cincin</value>
      </Data>
      <Data name="Ada">
        <value>189</value>
      </Data>
      <Data name="ParselNo">
        <value>116</value>
      </Data>
      <Data name="Alan">
        <value>1.687,33</value>
      </Data>
      <Data name="Pafta">
        <value>M19-C-01-A-4</value>
      </Data>
      <Data name="Nitelik">
        <value>Arsa</value>
      </Data>
      <Data name="Mevkii">
        <value>Köycivarı</value>
      </Data>
    </ExtendedData>
    <Polygon>
      <outerBoundaryIs>
        <LinearRing>
          <coordinates>27.75338,37.736960000000003
27.75348,37.736870000000003
27.753520000000002,37.736840000000001
27.754670000000001,37.736879999999999
27.754740000000002,37.736919999999998
27.754909999999999,37.736989999999999
27.754989999999999,37.737020000000001
27.75338,37.736960000000003</coordinates>
        </LinearRing>
      </outerBoundaryIs>
    </Polygon>
  </Placemark>
</kml>